{
  "type": "FeatureCollection",
  "features": [
    {
      "type": "Feature",
      "properties": {
        "norad_id": 40115,
        "name": "WORLDVIEW-3 (WV-3)",
        "group": "resource",
        "lat": 58.978871535353136,
        "lon": 35.93620714876961,
        "alt_km": 609.0907223125596,
        "timestamp": "2025-12-02T19:35:50.218905+00:00",
        "meta_object_name": "WORLDVIEW-3 (WV-3)",
        "meta_object_id": "2014-048A",
        "meta_epoch": "2025-12-02T11:14:42.695808",
        "meta_mean_motion": 14.85469209,
        "meta_eccentricity": 0.0004043,
        "meta_inclination": 97.8627,
        "meta_ra_of_asc_node": 48.8777,
        "meta_arg_of_pericenter": 222.0493,
        "meta_mean_anomaly": 138.0412,
        "meta_ephemeris_type": 0,
        "meta_classification_type": "U",
        "meta_norad_cat_id": 40115,
        "meta_element_set_no": 999,
        "meta_rev_at_epoch": 61271,
        "meta_bstar": 0.00019874,
        "meta_mean_motion_dot": 1.661e-05,
        "meta_mean_motion_ddot": 0,
        "tle_line1": "1 40115U 14048A   25336.46854972  .00001661  00000+0  19874-3 0  9997",
        "tle_line2": "2 40115  97.8627  48.8777 0004043 222.0493 138.0412 14.85469209612710"
      },
      "geometry": {
        "type": "Point",
        "coordinates": [
          35.93620714876961,
          58.978871535353136
        ]
      }
    },
    {
      "type": "Feature",
      "properties": {
        "norad_id": 40118,
        "name": "GAOFEN-2",
        "group": "resource",
        "lat": 51.04057804870512,
        "lon": 25.90017723015507,
        "alt_km": 622.7554776767429,
        "timestamp": "2025-12-02T19:35:50.218916+00:00",
        "meta_object_name": "GAOFEN-2",
        "meta_object_id": "2014-049A",
        "meta_epoch": "2025-12-02T12:52:34.711968",
        "meta_mean_motion": 14.80579045,
        "meta_eccentricity": 0.0008165,
        "meta_inclination": 98.0399,
        "meta_ra_of_asc_node": 35.6867,
        "meta_arg_of_pericenter": 142.3427,
        "meta_mean_anomaly": 217.8358,
        "meta_ephemeris_type": 0,
        "meta_classification_type": "U",
        "meta_norad_cat_id": 40118,
        "meta_element_set_no": 999,
        "meta_rev_at_epoch": 61013,
        "meta_bstar": 0.00014633,
        "meta_mean_motion_dot": 1.069e-05,
        "meta_mean_motion_ddot": 0,
        "tle_line1": "1 40118U 14049A   25336.53651287  .00001069  00000+0  14633-3 0  9993",
        "tle_line2": "2 40118  98.0399  35.6867 0008165 142.3427 217.8358 14.80579045610130"
      },
      "geometry": {
        "type": "Point",
        "coordinates": [
          25.90017723015507,
          51.04057804870512
        ]
      }
    },
    {
      "type": "Feature",
      "properties": {
        "norad_id": 40143,
        "name": "YAOGAN-21",
        "group": "resource",
        "lat": -75.60274136972744,
        "lon": 49.963475514855524,
        "alt_km": 508.8020910224568,
        "timestamp": "2025-12-02T19:35:50.218926+00:00",
        "meta_object_name": "YAOGAN-21",
        "meta_object_id": "2014-053A",
        "meta_epoch": "2025-12-02T13:37:54.378336",
        "meta_mean_motion": 15.23468865,
        "meta_eccentricity": 0.0010297,
        "meta_inclination": 97.1778,
        "meta_ra_of_asc_node": 20.3241,
        "meta_arg_of_pericenter": 72.6159,
        "meta_mean_anomaly": 287.6204,
        "meta_ephemeris_type": 0,
        "meta_classification_type": "U",
        "meta_norad_cat_id": 40143,
        "meta_element_set_no": 999,
        "meta_rev_at_epoch": 62499,
        "meta_bstar": 0.00038818,
        "meta_mean_motion_dot": 9.205e-05,
        "meta_mean_motion_ddot": 0,
        "tle_line1": "1 40143U 14053A   25336.56799049  .00009205  00000+0  38818-3 0  9999",
        "tle_line2": "2 40143  97.1778  20.3241 0010297  72.6159 287.6204 15.23468865624991"
      },
      "geometry": {
        "type": "Point",
        "coordinates": [
          49.963475514855524,
          -75.60274136972744
        ]
      }
    },
    {
      "type": "Feature",
      "properties": {
        "norad_id": 40275,
        "name": "YAOGAN-22",
        "group": "resource",
        "lat": -22.09013651618873,
        "lon": 124.51429635051744,
        "alt_km": 1205.1172098206534,
        "timestamp": "2025-12-02T19:35:50.218936+00:00",
        "meta_object_name": "YAOGAN-22",
        "meta_object_id": "2014-063A",
        "meta_epoch": "2025-12-02T08:45:35.847072",
        "meta_mean_motion": 13.15522181,
        "meta_eccentricity": 0.000587,
        "meta_inclination": 100.7417,
        "meta_ra_of_asc_node": 119.6383,
        "meta_arg_of_pericenter": 273.2794,
        "meta_mean_anomaly": 86.7645,
        "meta_ephemeris_type": 0,
        "meta_classification_type": "U",
        "meta_norad_cat_id": 40275,
        "meta_element_set_no": 999,
        "meta_rev_at_epoch": 53393,
        "meta_bstar": 0.00016337,
        "meta_mean_motion_dot": 1.5e-07,
        "meta_mean_motion_ddot": 0,
        "tle_line1": "1 40275U 14063A   25336.36499823  .00000015  00000+0  16337-3 0  9993",
        "tle_line2": "2 40275 100.7417 119.6383 0005870 273.2794  86.7645 13.15522181533933"
      },
      "geometry": {
        "type": "Point",
        "coordinates": [
          124.51429635051744,
          -22.09013651618873
        ]
      }
    },
    {
      "type": "Feature",
      "properties": {
        "norad_id": 40298,
        "name": "ASNARO",
        "group": "resource",
        "lat": 57.19417722742771,
        "lon": -115.41285989048684,
        "alt_km": 496.1179947079818,
        "timestamp": "2025-12-02T19:35:50.218946+00:00",
        "meta_object_name": "ASNARO",
        "meta_object_id": "2014-070A",
        "meta_epoch": "2025-12-02T11:09:42.509376",
        "meta_mean_motion": 15.19809187,
        "meta_eccentricity": 0.0007055,
        "meta_inclination": 97.3671,
        "meta_ra_of_asc_node": 52.665,
        "meta_arg_of_pericenter": 130.5918,
        "meta_mean_anomaly": 229.5932,
        "meta_ephemeris_type": 0,
        "meta_classification_type": "U",
        "meta_norad_cat_id": 40298,
        "meta_element_set_no": 999,
        "meta_rev_at_epoch": 61413,
        "meta_bstar": 0.00061205,
        "meta_mean_motion_dot": 0.00013064,
        "meta_mean_motion_ddot": 0,
        "tle_line1": "1 40298U 14070A   25336.46507534  .00013064  00000+0  61205-3 0  9998",
        "tle_line2": "2 40298  97.3671  52.6650 0007055 130.5918 229.5932 15.19809187614132"
      },
      "geometry": {
        "type": "Point",
        "coordinates": [
          -115.41285989048684,
          57.19417722742771
        ]
      }
    },
    {
      "type": "Feature",
      "properties": {
        "norad_id": 40310,
        "name": "YAOGAN-24",
        "group": "resource",
        "lat": -13.786119367662696,
        "lon": -74.15060640303881,
        "alt_km": 637.1081252262138,
        "timestamp": "2025-12-02T19:35:50.218957+00:00",
        "meta_object_name": "YAOGAN-24",
        "meta_object_id": "2014-072A",
        "meta_epoch": "2025-12-02T12:12:54.303840",
        "meta_mean_motion": 14.76141226,
        "meta_eccentricity": 0.0014197,
        "meta_inclination": 98.1217,
        "meta_ra_of_asc_node": 107.5483,
        "meta_arg_of_pericenter": 169.7691,
        "meta_mean_anomaly": 190.381,
        "meta_ephemeris_type": 0,
        "meta_classification_type": "U",
        "meta_norad_cat_id": 40310,
        "meta_element_set_no": 999,
        "meta_rev_at_epoch": 59470,
        "meta_bstar": 0.0002078,
        "meta_mean_motion_dot": 1.385e-05,
        "meta_mean_motion_ddot": 0,
        "tle_line1": "1 40310U 14072A   25336.50896185  .00001385  00000+0  20780-3 0  9999",
        "tle_line2": "2 40310  98.1217 107.5483 0014197 169.7691 190.3810 14.76141226594708"
      },
      "geometry": {
        "type": "Point",
        "coordinates": [
          -74.15060640303881,
          -13.786119367662696
        ]
      }
    },
    {
      "type": "Feature",
      "properties": {
        "norad_id": 40336,
        "name": "CBERS 4",
        "group": "resource",
        "lat": -55.17258802637267,
        "lon": 47.332729002777775,
        "alt_km": 781.3551903351627,
        "timestamp": "2025-12-02T19:35:50.218967+00:00",
        "meta_object_name": "CBERS 4",
        "meta_object_id": "2014-079A",
        "meta_epoch": "2025-12-02T11:29:38.190336",
        "meta_mean_motion": 14.35527585,
        "meta_eccentricity": 0.0001431,
        "meta_inclination": 98.3323,
        "meta_ra_of_asc_node": 34.8462,
        "meta_arg_of_pericenter": 127.7792,
        "meta_mean_anomaly": 232.3524,
        "meta_ephemeris_type": 0,
        "meta_classification_type": "U",
        "meta_norad_cat_id": 40336,
        "meta_element_set_no": 999,
        "meta_rev_at_epoch": 57573,
        "meta_bstar": 9.2908e-05,
        "meta_mean_motion_dot": 2.25e-06,
        "meta_mean_motion_ddot": 0,
        "tle_line1": "1 40336U 14079A   25336.47891424  .00000225  00000+0  92908-4 0  9995",
        "tle_line2": "2 40336  98.3323  34.8462 0001431 127.7792 232.3524 14.35527585575730"
      },
      "geometry": {
        "type": "Point",
        "coordinates": [
          47.332729002777775,
          -55.17258802637267
        ]
      }
    }
  ]
}